{"type": "FeatureCollection", "features": [ {"type": "Feature", "properties": {"norad_id": 30121, "name": "FENGYUN 1C DEB", "group": "fengyun-1c-debris", "lat": 64.67659711152103, "lon": -157.45805131739726, "alt_km": 746.9012477741935, "timestamp": "2025-12-03T17:47:50.991630+00:00", "meta": {"OBJECT_NAME": "FENGYUN 1C DEB", "OBJECT_ID": "1999-025SA", "EPOCH": "2025-12-03T07:21:51.729408", "MEAN_MOTION": 14.39791227, "ECCENTRICITY": 0.0031768, "INCLINATION": 102.1657, "RA_OF_ASC_NODE": 354.8055, "ARG_OF_PERICENTER": 188.8519, "MEAN_ANOMALY": 191.7379, "EPHEMERIS_TYPE": 0, "CLASSIFICATION_TYPE": "U", "NORAD_CAT_ID": 30121, "ELEMENT_SET_NO": 999, "REV_AT_EPOCH": 97404, "BSTAR": 0.0029107, "MEAN_MOTION_DOT": 9.123e-05, "MEAN_MOTION_DDOT": 0}, "tle": {"line1": "1 30121U 99025SA  25337.30684872  .00009123  00000+0  29107-2 0  9995", "line2": "2 30121 102.1657 354.8055 0031768 188.8519 191.7379 14.39791227974042"}}, "geometry": {"type": "Point", "coordinates": [-157.45805131739726, 64.67659711152103]}}, {"type": "Feature", "properties": {"norad_id": 30123, "name": "FENGYUN 1C DEB", "group": "fengyun-1c-debris", "lat": -15.861069014138446, "lon": -77.94358899254073, "alt_km": 909.791841154969, "timestamp": "2025-12-03T17:47:50.991640+00:00", "meta": {"OBJECT_NAME": "FENGYUN 1C DEB", "OBJECT_ID": "1999-025SC", "EPOCH": "2025-12-03T07:46:07.008672", "MEAN_MOTION": 14.25848493, "ECCENTRICITY": 0.0230342, "INCLINATION": 96.9252, "RA_OF_ASC_NODE": 279.7466, "ARG_OF_PERICENTER": 113.3563, "MEAN_ANOMALY": 249.2035, "EPHEMERIS_TYPE": 0, "CLASSIFICATION_TYPE": "U", "NORAD_CAT_ID": 30123, "ELEMENT_SET_NO": 999, "REV_AT_EPOCH": 97113, "BSTAR": 0.001448, "MEAN_MOTION_DOT": 4.525e-05, "MEAN_MOTION_DDOT": 0}, "tle": {"line1": "1 30123U 99025SC  25337.32369223  .00004525  00000+0  14480-2 0  9998", "line2": "2 30123  96.9252 279.7466 0230342 113.3563 249.2035 14.25848493971135"}}, "geometry": {"type": "Point", "coordinates": [-77.94358899254073, -15.861069014138446]}}, {"type": "Feature", "properties": {"norad_id": 30124, "name": "FENGYUN 1C DEB", "group": "fengyun-1c-debris", "lat": -70.26834664915923, "lon": 58.057285576619684, "alt_km": 947.4281720529834, "timestamp": "2025-12-03T17:47:50.991650+00:00", "meta": {"OBJECT_NAME": "FENGYUN 1C DEB", "OBJECT_ID": "1999-025SD", "EPOCH": "2025-12-03T03:07:29.690400", "MEAN_MOTION": 14.14170781, "ECCENTRICITY": 0.01437626, "INCLINATION": 99.133, "RA_OF_ASC_NODE": 30.7848, "ARG_OF_PERICENTER": 132.7472, "MEAN_ANOMALY": 283.4812, "EPHEMERIS_TYPE": 0, "CLASSIFICATION_TYPE": "U", "NORAD_CAT_ID": 30124, "ELEMENT_SET_NO": 999, "REV_AT_EPOCH": 96779, "BSTAR": 0.0012109249, "MEAN_MOTION_DOT": 2.504e-05, "MEAN_MOTION_DDOT": 0}, "tle": {"line1": "1 30124U 99025SD  25337.13020475  .00002504  00000+0  12109-2 0  9992", "line2": "2 30124  99.1330  30.7848 0143762 132.7472 283.4812 14.14170781967796"}}, "geometry": {"type": "Point", "coordinates": [58.057285576619684, -70.26834664915923]}}, {"type": "Feature", "properties": {"norad_id": 30125, "name": "FENGYUN 1C DEB", "group": "fengyun-1c-debris", "lat": 8.71113345073341, "lon": -102.04245338982867, "alt_km": 1050.5760965233376, "timestamp": "2025-12-03T17:47:50.991660+00:00", "meta": {"OBJECT_NAME": "FENGYUN 1C DEB", "OBJECT_ID": "1999-025SE", "EPOCH": "2025-12-03T05:19:16.590720", "MEAN_MOTION": 14.22569743, "ECCENTRICITY": 0.0343086, "INCLINATION": 98.7244, "RA_OF_ASC_NODE": 76.0936, "ARG_OF_PERICENTER": 11.7877, "MEAN_ANOMALY": 17.2189, "EPHEMERIS_TYPE": 0, "CLASSIFICATION_TYPE": "U", "NORAD_CAT_ID": 30125, "ELEMENT_SET_NO": 999, "REV_AT_EPOCH": 96786, "BSTAR": 0.00086074, "MEAN_MOTION_DOT": 3.472e-05, "MEAN_MOTION_DDOT": 0}, "tle": {"line1": "1 30125U 99025SE  25337.22171980  .00003472  00000+0  86074-3 0  9999", "line2": "2 30125  98.7244  76.0936 0343086  11.7877  17.2189 14.22569743967860"}}, "geometry": {"type": "Point", "coordinates": [-102.04245338982867, 8.71113345073341]}}, {"type": "Feature", "properties": {"norad_id": 30127, "name": "FENGYUN 1C DEB", "group": "fengyun-1c-debris", "lat": 80.04374508851053, "lon": 139.34269122555185, "alt_km": 702.2700705086318, "timestamp": "2025-12-03T17:47:50.991670+00:00", "meta": {"OBJECT_NAME": "FENGYUN 1C DEB", "OBJECT_ID": "1999-025SG", "EPOCH": "2025-12-03T00:42:25.503840", "MEAN_MOTION": 14.37767029, "ECCENTRICITY": 0.00846096, "INCLINATION": 98.2074, "RA_OF_ASC_NODE": 193.9674, "ARG_OF_PERICENTER": 108.3711, "MEAN_ANOMALY": 252.6701, "EPHEMERIS_TYPE": 0, "CLASSIFICATION_TYPE": "U", "NORAD_CAT_ID": 30127, "ELEMENT_SET_NO": 999, "REV_AT_EPOCH": 97096, "BSTAR": 0.0030908405, "MEAN_MOTION_DOT": 9.669e-05, "MEAN_MOTION_DDOT": 0}, "tle": {"line1": "1 30127U 99025SG  25337.02946185  .00009669  00000+0  30908-2 0  9994", "line2": "2 30127  98.2074 193.9674 0084609 108.3711 252.6701 14.37767029970962"}}, "geometry": {"type": "Point", "coordinates": [139.34269122555185, 80.04374508851053]}}, {"type": "Feature", "properties": {"norad_id": 30128, "name": "FENGYUN 1C DEB", "group": "fengyun-1c-debris", "lat": 18.208070746493185, "lon": 160.3851771224363, "alt_km": 663.889362219651, "timestamp": "2025-12-03T17:47:50.991680+00:00", "meta": {"OBJECT_NAME": "FENGYUN 1C DEB", "OBJECT_ID": "1999-025SH", "EPOCH": "2025-12-03T06:01:18.882336", "MEAN_MOTION": 14.45830524, "ECCENTRICITY": 0.0107517, "INCLINATION": 96.9791, "RA_OF_ASC_NODE": 337.6718, "ARG_OF_PERICENTER": 154.7163, "MEAN_ANOMALY": 334.3536, "EPHEMERIS_TYPE": 0, "CLASSIFICATION_TYPE": "U", "NORAD_CAT_ID": 30128, "ELEMENT_SET_NO": 999, "REV_AT_EPOCH": 97174, "BSTAR": 0.0029362, "MEAN_MOTION_DOT": 0.00011175, "MEAN_MOTION_DDOT": 0}, "tle": {"line1": "1 30128U 99025SH  25337.25091299  .00011175  00000+0  29362-2 0  9994", "line2": "2 30128  96.9791 337.6718 0107517 154.7163 334.3536 14.45830524971741"}}, "geometry": {"type": "Point", "coordinates": [160.3851771224363, 18.208070746493185]}}, {"type": "Feature", "properties": {"norad_id": 30129, "name": "FENGYUN 1C DEB", "group": "fengyun-1c-debris", "lat": 65.00086910060124, "lon": 118.28028980846096, "alt_km": 745.2481418328616, "timestamp": "2025-12-03T17:47:50.991714+00:00", "meta": {"OBJECT_NAME": "FENGYUN 1C DEB", "OBJECT_ID": "1999-025SJ", "EPOCH": "2025-12-03T07:41:45.049056", "MEAN_MOTION": 14.0155361, "ECCENTRICITY": 0.018871, "INCLINATION": 98.0257, "RA_OF_ASC_NODE": 280.2974, "ARG_OF_PERICENTER": 119.0291, "MEAN_ANOMALY": 32.3321, "EPHEMERIS_TYPE": 0, "CLASSIFICATION_TYPE": "U", "NORAD_CAT_ID": 30129, "ELEMENT_SET_NO": 999, "REV_AT_EPOCH": 96346, "BSTAR": 0.00055488, "MEAN_MOTION_DOT": 9.46e-06, "MEAN_MOTION_DDOT": 0}, "tle": {"line1": "1 30129U 99025SJ  25337.32066029  .00000946  00000+0  55488-3 0  9999", "line2": "2 30129  98.0257 280.2974 0188710 119.0291  32.3321 14.01553610963466"}}, "geometry": {"type": "Point", "coordinates": [118.28028980846096, 65.00086910060124]}}, {"type": "Feature", "properties": {"norad_id": 30131, "name": "FENGYUN 1C DEB", "group": "fengyun-1c-debris", "lat": -80.7344707851564, "lon": 147.79079627733526, "alt_km": 826.7335052949475, "timestamp": "2025-12-03T17:47:50.991725+00:00", "meta": {"OBJECT_NAME": "FENGYUN 1C DEB", "OBJECT_ID": "1999-025SL", "EPOCH": "2025-12-03T04:51:16.695648", "MEAN_MOTION": 14.2099512, "ECCENTRICITY": 0.00834837, "INCLINATION": 99.0757, "RA_OF_ASC_NODE": 68.7767, "ARG_OF_PERICENTER": 185.3299, "MEAN_ANOMALY": 208.3325, "EPHEMERIS_TYPE": 0, "CLASSIFICATION_TYPE": "U", "NORAD_CAT_ID": 30131, "ELEMENT_SET_NO": 999, "REV_AT_EPOCH": 96553, "BSTAR": 0.0040817031, "MEAN_MOTION_DOT": 9.129e-05, "MEAN_MOTION_DDOT": 0}, "tle": {"line1": "1 30131U 99025SL  25337.20227657  .00009129  00000+0  40817-2 0  9996", "line2": "2 30131  99.0757  68.7767 0083483 185.3299 208.3325 14.20995120965535"}}, "geometry": {"type": "Point", "coordinates": [147.79079627733526, -80.7344707851564]}}, {"type": "Feature", "properties": {"norad_id": 30132, "name": "FENGYUN 1C DEB", "group": "fengyun-1c-debris", "lat": 29.00382623488802, "lon": -74.3823979821914, "alt_km": 854.5988256041755, "timestamp": "2025-12-03T17:47:50.991735+00:00", "meta": {"OBJECT_NAME": "FENGYUN 1C DEB", "OBJECT_ID": "1999-025SM", "EPOCH": "2025-12-03T08:06:07.370784", "MEAN_MOTION": 13.94831021, "ECCENTRICITY": 0.0105737, "INCLINATION": 99.576, "RA_OF_ASC_NODE": 290.5687, "ARG_OF_PERICENTER": 74.8375, "MEAN_ANOMALY": 88.1118, "EPHEMERIS_TYPE": 0, "CLASSIFICATION_TYPE": "U", "NORAD_CAT_ID": 30132, "ELEMENT_SET_NO": 999, "REV_AT_EPOCH": 95958, "BSTAR": 0.0007416, "MEAN_MOTION_DOT": 9.96e-06, "MEAN_MOTION_DDOT": 0}, "tle": {"line1": "1 30132U 99025SM  25337.33758531  .00000996  00000+0  74160-3 0  9993", "line2": "2 30132  99.5760 290.5687 0105737  74.8375  88.1118 13.94831021959586"}}, "geometry": {"type": "Point", "coordinates": [-74.3823979821914, 29.00382623488802]}}, {"type": "Feature", "properties": {"norad_id": 30133, "name": "FENGYUN 1C DEB", "group": "fengyun-1c-debris", "lat": -72.116596532808, "lon": -61.83907218124779, "alt_km": 825.5708492424683, "timestamp": "2025-12-03T17:47:50.991745+00:00", "meta": {"OBJECT_NAME": "FENGYUN 1C DEB", "OBJECT_ID": "1999-025SN", "EPOCH": "2025-12-03T10:02:25.109088", "MEAN_MOTION": 14.06594021, "ECCENTRICITY": 0.0085493, "INCLINATION": 98.324, "RA_OF_ASC_NODE": 144.8464, "ARG_OF_PERICENTER": 286.9315, "MEAN_ANOMALY": 131.9038, "EPHEMERIS_TYPE": 0, "CLASSIFICATION_TYPE": "U", "NORAD_CAT_ID": 30133, "ELEMENT_SET_NO": 999, "REV_AT_EPOCH": 96247, "BSTAR": 0.0021808, "MEAN_MOTION_DOT": 3.697e-05, "MEAN_MOTION_DDOT": 0}, "tle": {"line1": "1 30133U 99025SN  25337.41834617  .00003697  00000+0  21808-2 0  9994", "line2": "2 30133  98.3240 144.8464 0085493 286.9315 131.9038 14.06594021962477"}}, "geometry": {"type": "Point", "coordinates": [-61.83907218124779, -72.116596532808]}}]}